[{"OBJECT_NAME":"STARLINK-3757","OBJECT_ID":"2022-051G","EPOCH":"2026-03-09T10:25:05.142720","MEAN_MOTION":15.08839998,"ECCENTRICITY":0.00015891,"INCLINATION":53.2179,"RA_OF_ASC_NODE":130.2694,"ARG_OF_PERICENTER":89.51,"MEAN_ANOMALY":270.6075,"EPHEMERIS_TYPE":0,"CLASSIFICATION_TYPE":"U","NORAD_CAT_ID":52539,"ELEMENT_SET_NO":999,"REV_AT_EPOCH":21140,"BSTAR":3.5835187e-5,"MEAN_MOTION_DOT":2.82e-6,"MEAN_MOTION_DDOT":0},{"OBJECT_NAME":"OBJECT J","OBJECT_ID":"2017-042J","EPOCH":"2026-03-09T23:17:19.167936","MEAN_MOTION":15.08203331,"ECCENTRICITY":0.00078186,"INCLINATION":97.4246,"RA_OF_ASC_NODE":235.0467,"ARG_OF_PERICENTER":81.5059,"MEAN_ANOMALY":278.7055,"EPHEMERIS_TYPE":0,"CLASSIFICATION_TYPE":"U","NORAD_CAT_ID":42833,"ELEMENT_SET_NO":999,"REV_AT_EPOCH":47205,"BSTAR":0.00039182004,"MEAN_MOTION_DOT":6.006e-5,"MEAN_MOTION_DDOT":0}]
